NORAD_CAT_ID,OBJECT_NAME,OBJECT_TYPE,EPOCH,MEAN_MOTION,ECCENTRICITY,INCLINATION,RA_OF_ASC_NODE,ARG_OF_PERICENTER,MEAN_ANOMALY,BSTAR,MEAN_MOTION_DOT,MEAN_MOTION_DDOT,TLE_LINE0,TLE_LINE1,TLE_LINE2,SEMIMAJOR_AXIS,PERIOD,APOGEE,PERIGEE,DECAYED
53625.0,STARLINK-4603,PAYLOAD,2023-11-26 10:25:22,15.08874941,0.000188,53.2178,19.0375,87.5631,272.5576,0.0007152,0.00011124,0.0,0 STARLINK-4603,1 53625U 22104AP  23330.43428356  .00011124  00000-0  71520-3 0  9993,2 53625  53.2178  19.0375 0001880  87.5631 272.5576 15.08874941 69120,6917.774,95.435,540.939,538.338,0.0
53625.0,STARLINK-4603,PAYLOAD,2023-11-27 03:54:38,15.08789113,0.0001227,53.2187,15.7684,97.8289,262.2842,-0.0012857,-0.00020663,0.0,0 STARLINK-4603,1 53625U 22104AP  23331.16294452 -.00020663  00000-0 -12857-2 0  9999,2 53625  53.2187  15.7684 0001227  97.8289 262.2842 15.08789113 69234,6918.036,95.441,540.75,539.052,0.0
53625.0,STARLINK-4603,PAYLOAD,2023-11-27 10:16:12,15.0874611,0.0002399,53.2193,14.5818,113.2961,246.8284,-0.0021769,-0.0003468,0.0,0 STARLINK-4603,1 53625U 22104AP  23331.42792442 -.00034680  00000-0 -21769-2 0  9996,2 53625  53.2193  14.5818 0002399 113.2961 246.8284 15.08746110 69270,6918.167,95.443,541.692,538.373,0.0
53625.0,STARLINK-4603,PAYLOAD,2023-11-28 11:42:22,15.0887668,0.0002441,53.2179,9.8201,121.1566,238.9665,0.0023628,0.00037555,0.0,0 STARLINK-4603,1 53625U 22104AP  23332.48776508  .00037555  00000-0  23628-2 0  9996,2 53625  53.2179   9.8201 0002441 121.1566 238.9665 15.08876680 69433,6917.768,95.435,541.322,537.945,0.0
53625.0,STARLINK-4603,PAYLOAD,2023-11-29 03:36:13,15.0886858,0.0002195,53.2163,6.8476,107.8218,252.3014,9.9578e-05,1.298e-05,0.0,0 STARLINK-4603,1 53625U 22104AP  23333.15015310  .00001298  00000-0  99578-4 0  9992,2 53625  53.2163   6.8476 0002195 107.8218 252.3014 15.08868580 69537,6917.793,95.436,541.176,538.14,0.0
53625.0,STARLINK-4603,PAYLOAD,2023-11-29 09:57:45,15.08864798,0.0002061,53.2171,5.6596,95.6476,264.4752,0.00026404,3.919e-05,0.0,0 STARLINK-4603,1 53625U 22104AP  23333.41511173  .00003919  00000-0  26404-3 0  9998,2 53625  53.2171   5.6596 0002061  95.6476 264.4752 15.08864798 70259,6917.805,95.436,541.095,538.244,0.0
53625.0,STARLINK-4603,PAYLOAD,2023-11-30 08:13:09,15.08846664,0.0002228,53.2171,1.4956,99.5054,260.619,0.00037654,5.711e-05,0.0,0 STARLINK-4603,1 53625U 22104AP  23334.34247277  .00005711  00000-0  37654-3 0  9993,2 53625  53.2171   1.4956 0002228  99.5054 260.6190 15.08846664 69718,6917.86,95.437,541.266,538.184,0.0
53625.0,STARLINK-4603,PAYLOAD,2023-12-01 01:42:24,15.0884652,0.0002384,53.2176,358.2259,83.3156,276.8107,0.00034786,5.253e-05,0.0,0 STARLINK-4603,1 53625U 22104AP  23335.07111535  .00005253  00000-0  34786-3 0  9995,2 53625  53.2176 358.2259 0002384  83.3156 276.8107 15.08846520 69829,6917.86,95.437,541.375,538.076,0.0
53625.0,STARLINK-4603,PAYLOAD,2023-12-01 08:03:56,15.08848798,0.0002248,53.2178,357.0364,86.4445,273.6804,0.00030973,4.646e-05,0.0,0 STARLINK-4603,1 53625U 22104AP  23335.33607392  .00004646  00000-0  30973-3 0  9994,2 53625  53.2178 357.0364 0002248  86.4445 273.6804 15.08848798 70548,6917.853,95.437,541.274,538.163,0.0
53625.0,STARLINK-4603,PAYLOAD,2023-12-02 01:33:10,15.08867019,0.0002184,53.2179,353.7634,101.1794,258.9444,0.00058097,8.977e-05,0.0,0 STARLINK-4603,1 53625U 22104AP  23336.06470191  .00008977  00000-0  58097-3 0  9998,2 53625  53.2179 353.7634 0002184 101.1794 258.9444 15.08867019 69971,6917.798,95.436,541.174,538.152,0.0
53625.0,STARLINK-4603,PAYLOAD,2023-12-02 11:05:27,15.08921624,0.0002252,53.2171,351.9798,92.5251,267.5999,0.0019895,0.00031589,0.0,0 STARLINK-4603,1 53625U 22104AP  23336.46212198  .00031589  00000-0  19895-2 0  9990,2 53625  53.2171 351.9798 0002252  92.5251 267.5999 15.08921624 70034,6917.631,95.432,541.054,537.938,0.0
53625.0,STARLINK-4603,PAYLOAD,2023-12-03 01:23:57,15.08823687,0.0002309,53.218,349.3113,65.2051,294.9181,-0.001011,-0.00016336,0.0,0 STARLINK-4603,1 53625U 22104AP  23337.05829981 -.00016336  00000-0 -10110-2 0  9996,2 53625  53.2180 349.3113 0002309  65.2051 294.9181 15.08823687 70121,6917.93,95.439,541.393,538.198,0.0
53625.0,STARLINK-4603,PAYLOAD,2023-12-03 07:45:30,15.08812436,0.00023,53.2176,348.1166,88.3323,271.7933,-0.00074822,-0.00012168,0.0,0 STARLINK-4603,1 53625U 22104AP  23337.32326499 -.00012168  00000-0 -74822-3 0  9992,2 53625  53.2176 348.1166 0002300  88.3323 271.7933 15.08812436 70847,6917.965,95.439,541.421,538.239,0.0
53625.0,STARLINK-4603,PAYLOAD,2023-12-04 01:14:46,15.08828499,0.0002323,53.2176,344.8422,76.2675,283.8575,0.0013469,0.00021206,0.0,0 STARLINK-4603,1 53625U 22104AP  23338.05192161  .00021206  00000-0  13469-2 0  9990,2 53625  53.2176 344.8422 0002323  76.2675 283.8575 15.08828499 70275,6917.916,95.438,541.388,538.174,0.0
53625.0,STARLINK-4603,PAYLOAD,2023-12-04 07:36:18,15.08842725,0.0002312,53.2175,343.654,80.3172,279.8081,0.0014707,0.00023198,0.0,0 STARLINK-4603,1 53625U 22104AP  23338.31688163  .00023198  00000-0  14707-2 0  9999,2 53625  53.2175 343.6540 0002312  80.3172 279.8081 15.08842725 70992,6917.872,95.437,541.336,538.138,0.0
53625.0,STARLINK-4603,PAYLOAD,2023-12-05 04:16:18,15.08863894,0.0002336,53.2173,339.7879,85.1858,274.9401,0.0010378,0.00016278,0.0,0 STARLINK-4603,1 53625U 22104AP  23339.17799595  .00016278  00000-0  10378-2 0  9997,2 53625  53.2173 339.7879 0002336  85.1858 274.9401 15.08863894 70443,6917.807,95.436,541.288,538.056,0.0
53625.0,STARLINK-4603,PAYLOAD,2023-12-05 07:27:04,15.08867501,0.0002338,53.2174,339.1933,85.3935,274.7324,0.0010219,0.00016025,0.0,0 STARLINK-4603,1 53625U 22104AP  23339.31047362  .00016025  00000-0  10219-2 0  9995,2 53625  53.2174 339.1933 0002338  85.3935 274.7324 15.08867501 71148,6917.796,95.436,541.279,538.044,0.0
53625.0,STARLINK-4603,PAYLOAD,2023-12-06 04:07:05,15.08845754,0.0002612,53.2176,335.3262,96.5647,263.5643,0.00048408,7.426e-05,0.0,0 STARLINK-4603,1 53625U 22104AP  23340.17159350  .00007426  00000-0  48408-3 0  9999,2 53625  53.2176 335.3262 0002612  96.5647 263.5643 15.08845754 70596,6917.863,95.437,541.535,537.921,0.0
53625.0,STARLINK-4603,PAYLOAD,2023-12-06 08:53:14,15.08850099,0.0002384,53.2169,334.4349,89.4957,270.6309,0.00022842,3.35e-05,0.0,0 STARLINK-4603,1 53625U 22104AP  23340.37031221  .00003350  00000-0  22842-3 0  9993,2 53625  53.2169 334.4349 0002384  89.4957 270.6309 15.08850099 71301,6917.85,95.437,541.364,538.065,0.0
53625.0,STARLINK-4603,PAYLOAD,2023-12-07 03:57:53,15.08830861,0.0002594,53.2167,330.8676,83.4173,276.7114,1.2739e-05,-8.6e-07,0.0,0 STARLINK-4603,1 53625U 22104AP  23341.16520111 -.00000086  00000-0  12739-4 0  9991,2 53625  53.2167 330.8676 0002594  83.4173 276.7114 15.08830861 70742,6917.908,95.438,541.568,537.979,0.0
53625.0,STARLINK-4603,PAYLOAD,2023-12-07 08:44:02,15.08838009,0.0002339,53.2176,329.9746,89.7816,270.3444,-2.7117e-05,-7.2e-06,0.0,0 STARLINK-4603,1 53625U 22104AP  23341.36391997 -.00000720  00000-0 -27117-4 0  9993,2 53625  53.2176 329.9746 0002339  89.7816 270.3444 15.08838009 71456,6917.886,95.438,541.37,538.133,0.0
53625.0,STARLINK-4603,PAYLOAD,2023-12-08 08:34:49,15.08841585,0.0002353,53.2183,325.5097,94.2725,265.8536,0.00020905,3.04e-05,0.0,0 STARLINK-4603,1 53625U 22104AP  23342.35752188  .00003040  00000-0  20905-3 0  9999,2 53625  53.2183 325.5097 0002353  94.2725 265.8536 15.08841585 70926,6917.876,95.437,541.368,538.113,0.0
53625.0,STARLINK-4603,PAYLOAD,2023-12-09 08:25:36,15.08846299,0.0002601,53.2184,321.0487,80.0284,280.1001,0.00023614,3.473e-05,0.0,0 STARLINK-4603,1 53625U 22104AP  23343.35112165  .00003473  00000-0  23614-3 0  9995,2 53625  53.2184 321.0487 0002601  80.0284 280.1001 15.08846299 71756,6917.861,95.437,541.525,537.927,0.0
53625.0,STARLINK-4603,PAYLOAD,2023-12-09 22:44:05,15.08840669,0.0002397,53.2193,318.3689,102.4079,257.7181,1.7748e-05,-6e-08,0.0,0 STARLINK-4603,1 53625U 22104AP  23343.94728213 -.00000006  00000-0  17748-4 0  9999,2 53625  53.2193 318.3689 0002397 102.4079 257.7181 15.08840669 71846,6917.878,95.438,541.402,538.085,0.0
53625.0,STARLINK-4603,PAYLOAD,2023-12-10 08:16:24,15.08829784,0.0002708,53.2181,316.5885,91.6729,268.4573,0.00033027,4.97e-05,0.0,0 STARLINK-4603,1 53625U 22104AP  23344.34473013  .00004970  00000-0  33027-3 0  9999,2 53625  53.2181 316.5885 0002708  91.6729 268.4573 15.08829784 71229,6917.912,95.438,541.65,537.903,0.0
53625.0,STARLINK-4603,PAYLOAD,2023-12-11 03:21:01,15.0884433,0.0002513,53.2178,313.0169,110.6607,249.4655,2.0433e-05,3.7e-07,0.0,0 STARLINK-4603,1 53625U 22104AP  23345.13959951  .00000037  00000-0  20433-4 0  9995,2 53625  53.2178 313.0169 0002513 110.6607 249.4655 15.08844330 71340,6917.867,95.437,541.471,537.994,0.0
53625.0,STARLINK-4603,PAYLOAD,2023-12-12 03:11:48,15.08845233,0.0002395,53.2172,308.5605,103.223,256.9029,0.00014473,2.016e-05,0.0,0 STARLINK-4603,1 53625U 22104AP  23346.13319876  .00002016  00000-0  14473-3 0  9997,2 53625  53.2172 308.5605 0002395 103.2230 256.9029 15.08845233 72179,6917.864,95.437,541.386,538.073,0.0
53625.0,STARLINK-4603,PAYLOAD,2023-12-13 03:02:35,15.08839234,0.0002271,53.2175,304.1084,100.3264,259.7984,7.2828e-06,-1.72e-06,0.0,0 STARLINK-4603,1 53625U 22104AP  23347.12680301 -.00000172  00000-0  72828-5 0  9993,2 53625  53.2175 304.1084 0002271 100.3264 259.7984 15.08839234 71649,6917.883,95.438,541.319,538.177,0.0
53625.0,STARLINK-4603,PAYLOAD,2023-12-14 04:28:44,15.08866321,0.0002006,53.2162,299.3459,97.1781,262.9439,0.00044083,6.74e-05,0.0,0 STARLINK-4603,1 53625U 22104AP  23348.18662895  .00006740  00000-0  44083-3 0  9994,2 53625  53.2162 299.3459 0002006  97.1781 262.9439 15.08866321 71805,6917.8,95.436,541.053,538.277,0.0
53625.0,STARLINK-4603,PAYLOAD,2023-12-15 04:19:32,15.0884352,0.000212,53.2175,294.8832,83.0435,277.0799,7.6006e-05,9.22e-06,0.0,0 STARLINK-4603,1 53625U 22104AP  23349.18023809  .00000922  00000-0  76006-4 0  9998,2 53625  53.2175 294.8832 0002120  83.0435 277.0799 15.08843520 71959,6917.87,95.437,541.201,538.268,0.0
